OBJECT_NAME,OBJECT_ID,EPOCH,MEAN_MOTION,ECCENTRICITY,INCLINATION,RA_OF_ASC_NODE,ARG_OF_PERICENTER,MEAN_ANOMALY,EPHEMERIS_TYPE,CLASSIFICATION_TYPE,NORAD_CAT_ID,ELEMENT_SET_NO,REV_AT_EPOCH,BSTAR,MEAN_MOTION_DOT,MEAN_MOTION_DDOT
LAPAN-TUBSAT,2007-001A,2025-03-11T04:30:59.982336,14.85086073,.0010885,98.1031,55.1002,250.8088,109.1948,0,U,29709,999,98242,.16723E-3,.1373E-4,0
THEMIS A,2007-004A,2025-03-09T17:35:30.266016,0.87838042,.8438893,5.8191,237.5268,17.3685,359.1012,0,U,30580,999,3719,0,-.1E-6,0
SKYNET 5A,2007-007B,2025-03-11T01:42:51.582240,1.00270327,.0003894,4.1170,79.3468,281.5656,288.9544,0,U,30794,999,6600,0,-.286E-5,0
THEMIS D,2007-004D,2025-03-10T19:58:17.914656,0.87836283,.8412455,1.0303,217.0202,42.2192,335.8627,0,U,30797,999,3699,0,.5E-6,0
THEMIS E,2007-004E,2025-03-10T18:19:46.740288,0.87837303,.8403712,3.3995,272.0666,347.9755,326.8126,0,U,30798,999,6183,0,.7E-7,0
ANIK F3,2007-009A,2025-03-11T05:25:38.625600,1.00269338,.000232,0.0276,157.0192,192.6664,142.1555,0,U,31102,999,6569,0,-.17E-6,0
HAIYANG-1B,2007-010A,2025-03-10T23:12:42.636960,14.30841023,.0014505,98.3110,66.0216,131.3357,228.9077,0,U,31113,999,93512,.1077E-3,.241E-5,0
ASTRA 1L,2007-016A,2025-03-10T20:52:38.793216,1.00274491,.0004293,0.1309,68.8398,268.4416,164.0256,0,U,31306,999,4034,0,.103E-5,0
GALAXY 17 (G-17),2007-016B,2025-03-10T19:28:16.364064,1.00274056,.0005125,1.7959,85.8588,206.4020,83.5018,0,U,31307,999,6515,0,-.223E-5,0
COSMO-SKYMED 1,2007-023A,2025-03-11T03:21:46.424160,14.82169772,.0001342,97.8917,255.4591,81.1606,278.9759,0,U,31598,999,96074,.14656E-3,.1115E-4,0
TERRASAR-X,2007-026A,2025-03-10T13:04:42.293280,15.19152065,.0002017,97.4464,78.8729,77.7883,282.3577,0,U,31698,999,98349,.1543E-3,.3175E-4,0
GENESIS 2,2007-028A,2025-03-10T22:25:24.784896,15.61076971,.0014807,64.4816,18.7443,318.6932,41.3091,0,U,31789,999,97868,.83863E-3,.71845E-3,0
COSMOS 2428,2007-029A,2025-03-10T20:17:13.949376,14.12848946,.00044,70.9388,247.1172,4.4748,355.6412,0,U,31792,999,91278,-.69424E-4,-.177E-5,0
ZHONGXING-6B,2007-031A,2025-03-10T21:20:38.761728,1.00273466,.0004397,1.2004,87.3626,250.5078,266.3760,0,U,31800,999,6478,0,-.378E-5,0
DIRECTV 10,2007-032A,2025-03-10T14:14:34.069632,1.00272042,.0000529,0.0120,282.8281,76.3971,280.1082,0,U,31862,999,6475,0,-.121E-5,0
BSAT-3A,2007-036B,2025-03-10T19:39:39.451968,0.99142150,.0002026,0.4596,108.5702,139.1026,171.1816,0,U,32019,999,4587,0,-.247E-5,0
WORLDVIEW-1 (WV-1),2007-041A,2025-03-10T20:14:43.921824,15.24683138,.0002804,97.3864,191.3817,162.0768,198.0569,0,U,32060,999,97242,.53676E-3,.1321E-3,0
OPTUS D2,2007-044A,2025-03-10T18:55:26.082048,1.00272484,.0005931,0.8733,88.0030,242.2904,282.3675,0,U,32252,999,6392,0,-.127E-5,0
INTELSAT 11 (IS-11),2007-044B,2025-03-10T19:40:16.984992,1.00270821,.0003274,2.3559,84.4202,269.4299,66.9223,0,U,32253,999,6384,0,-.285E-5,0
WGS F1 (USA 195),2007-046A,2025-03-10T19:40:24.491424,1.00272244,.0000474,0.0894,89.8983,254.0426,77.3666,0,U,32258,999,4768,0,-.284E-5,0
