SKYNET 5A               
1 30794U 07007B   25070.07143035 -.00000286  00000+0  00000+0 0  9999
2 30794   4.1170  79.3468 0003894 281.5656 288.9544  1.00270327 66006
ANIK F3                 
1 31102U 07009A   25070.22614150 -.00000017  00000+0  00000+0 0  9995
2 31102   0.0276 157.0192 0002320 192.6664 142.1555  1.00269338 65691
ASTRA 1L                
1 31306U 07016A   25069.86989344  .00000103  00000+0  00000+0 0  9992
2 31306   0.1309  68.8398 0004293 268.4416 164.0256  1.00274491 40342
GALAXY 17 (G-17)        
1 31307U 07016B   25069.81130051 -.00000223  00000+0  00000+0 0  9995
2 31307   1.7959  85.8588 0005125 206.4020  83.5018  1.00274056 65153
ZHONGXING-6B            
1 31800U 07031A   25069.88933752 -.00000378  00000+0  00000+0 0  9997
2 31800   1.2004  87.3626 0004397 250.5078 266.3760  1.00273466 64787
DIRECTV 10              
1 31862U 07032A   25069.59344988 -.00000121  00000+0  00000+0 0  9997
2 31862   0.0120 282.8281 0000529  76.3971 280.1082  1.00272042 64756
BSAT-3A                 
1 32019U 07036B   25069.81920662 -.00000247  00000+0  00000+0 0  9999
2 32019   0.4596 108.5702 0002026 139.1026 171.1816  0.99142150 45876
OPTUS D2                
1 32252U 07044A   25069.78849632 -.00000127  00000+0  00000+0 0  9997
2 32252   0.8733  88.0030 0005931 242.2904 282.3675  1.00272484 63928
INTELSAT 11 (IS-11)     
1 32253U 07044B   25069.81964103 -.00000285  00000+0  00000+0 0  9998
2 32253   2.3559  84.4202 0003274 269.4299  66.9223  1.00270821 63848
WGS F1 (USA 195)        
1 32258U 07046A   25069.81972791 -.00000284  00000+0  00000+0 0  9996
2 32258   0.0894  89.8983 0000474 254.0426  77.3666  1.00272244 47688
LAPAN-TUBSAT            
1 29709U 07001A   25070.18819424  .00001373  00000+0  16723-3 0  9991
2 29709  98.1031  55.1002 0010885 250.8088 109.1948 14.85086073982426
HAIYANG-1B              
1 31113U 07010A   25069.96716015  .00000241  00000+0  10770-3 0  9998
2 31113  98.3110  66.0216 0014505 131.3357 228.9077 14.30841023935123
COSMO-SKYMED 1          
1 31598U 07023A   25070.14012065  .00001115  00000+0  14656-3 0  9993
2 31598  97.8917 255.4591 0001342  81.1606 278.9759 14.82169772960742
TERRASAR-X              
1 31698U 07026A   25069.54493395  .00003175  00000+0  15430-3 0  9997
2 31698  97.4464  78.8729 0002017  77.7883 282.3577 15.19152065983496
WORLDVIEW-1 (WV-1)      
1 32060U 07041A   25069.84356391  .00013210  00000+0  53676-3 0  9990
2 32060  97.3864 191.3817 0002804 162.0768 198.0569 15.24683138972427
THEMIS A                
1 30580U 07004A   25068.73298919 -.00000010  00000+0  00000+0 0  9996
2 30580   5.8191 237.5268 8438893  17.3685 359.1012  0.87838042 37199
THEMIS D                
1 30797U 07004D   25069.83215179  .00000050  00000+0  00000+0 0  9998
2 30797   1.0303 217.0202 8412455  42.2192 335.8627  0.87836283 36994
THEMIS E                
1 30798U 07004E   25069.76373542  .00000007  00000+0  00000+0 0  9992
2 30798   3.3995 272.0666 8403712 347.9755 326.8126  0.87837303 61837
GENESIS 2               
1 31789U 07028A   25069.93431464  .00071845  00000+0  83863-3 0  9996
2 31789  64.4816  18.7443 0014807 318.6932  41.3091 15.61076971978687
COSMOS 2428             
1 31792U 07029A   25069.84530034 -.00000177  00000+0 -69424-4 0  9994
2 31792  70.9388 247.1172 0004400   4.4748 355.6412 14.12848946912788
